{"type": "FeatureCollection", "features": [ {"type": "Feature", "properties": {"norad_id": 37998, "name": "COSMOS 2251 DEB", "group": "cosmos-2251-debris", "lat": 70.44627308620987, "lon": -76.26268553471837, "alt_km": 743.3460907193185, "timestamp": "2025-12-15T10:55:21.542885+00:00", "meta": {"OBJECT_NAME": "COSMOS 2251 DEB", "OBJECT_ID": "1993-036BQZ", "EPOCH": "2025-12-07T01:34:33.386016", "MEAN_MOTION": 14.45444842, "ECCENTRICITY": 0.00199405, "INCLINATION": 74.0387, "RA_OF_ASC_NODE": 245.6796, "ARG_OF_PERICENTER": 320.6712, "MEAN_ANOMALY": 39.2997, "EPHEMERIS_TYPE": 0, "CLASSIFICATION_TYPE": "U", "NORAD_CAT_ID": 37998, "ELEMENT_SET_NO": 999, "REV_AT_EPOCH": 64205, "BSTAR": 0.00093558552, "MEAN_MOTION_DOT": 3.277e-05, "MEAN_MOTION_DDOT": 0}, "tle": {"line1": "1 37998U 93036BQZ 25341.06566419  .00003277  00000+0  93559-3 0  9991", "line2": "2 37998  74.0387 245.6796 0019940 320.6712  39.2997 14.45444842642056"}}, "geometry": {"type": "Point", "coordinates": [-76.26268553471837, 70.44627308620987]}}, {"type": "Feature", "properties": {"norad_id": 38001, "name": "COSMOS 2251 DEB", "group": "cosmos-2251-debris", "lat": 4.6223534661079, "lon": 128.30648385754773, "alt_km": 633.1188041081696, "timestamp": "2025-12-15T10:55:21.542895+00:00", "meta": {"OBJECT_NAME": "COSMOS 2251 DEB", "OBJECT_ID": "1993-036BRC", "EPOCH": "2025-12-12T20:16:35.165280", "MEAN_MOTION": 14.79078189, "ECCENTRICITY": 0.00654432, "INCLINATION": 74.0015, "RA_OF_ASC_NODE": 132.1204, "ARG_OF_PERICENTER": 281.6012, "MEAN_ANOMALY": 229.3519, "EPHEMERIS_TYPE": 0, "CLASSIFICATION_TYPE": "U", "NORAD_CAT_ID": 38001, "ELEMENT_SET_NO": 999, "REV_AT_EPOCH": 74709, "BSTAR": 0.0011942627, "MEAN_MOTION_DOT": 9.141e-05, "MEAN_MOTION_DDOT": 0}, "tle": {"line1": "1 38001U 93036BRC 25346.84485145  .00009141  00000+0  11943-2 0  9996", "line2": "2 38001  74.0015 132.1204 0065443 281.6012 229.3519 14.79078189747098"}}, "geometry": {"type": "Point", "coordinates": [128.30648385754773, 4.6223534661079]}}, {"type": "Feature", "properties": {"norad_id": 38006, "name": "COSMOS 2251 DEB", "group": "cosmos-2251-debris", "lat": -57.420641664520595, "lon": -120.13870564805715, "alt_km": 750.5812884350071, "timestamp": "2025-12-15T10:55:21.542905+00:00", "meta": {"OBJECT_NAME": "COSMOS 2251 DEB", "OBJECT_ID": "1993-036BRH", "EPOCH": "2025-12-10T03:36:37.956384", "MEAN_MOTION": 14.45867865, "ECCENTRICITY": 0.00758537, "INCLINATION": 73.8744, "RA_OF_ASC_NODE": 42.933, "ARG_OF_PERICENTER": 348.3853, "MEAN_ANOMALY": 11.555, "EPHEMERIS_TYPE": 0, "CLASSIFICATION_TYPE": "U", "NORAD_CAT_ID": 38006, "ELEMENT_SET_NO": 999, "REV_AT_EPOCH": 62922, "BSTAR": 0.0047338847, "MEAN_MOTION_DOT": 0.00017443, "MEAN_MOTION_DDOT": 0}, "tle": {"line1": "1 38006U 93036BRH 25344.15043931  .00017443  00000+0  47339-2 0  9998", "line2": "2 38006  73.8744  42.9330 0075853 348.3853  11.5550 14.45867865629227"}}, "geometry": {"type": "Point", "coordinates": [-120.13870564805715, -57.420641664520595]}}, {"type": "Feature", "properties": {"norad_id": 38054, "name": "COSMOS 2251 DEB", "group": "cosmos-2251-debris", "lat": -72.84031645069057, "lon": 150.08200093116412, "alt_km": 791.5460504046159, "timestamp": "2025-12-15T10:55:21.542916+00:00", "meta": {"OBJECT_NAME": "COSMOS 2251 DEB", "OBJECT_ID": "1993-036BRL", "EPOCH": "2025-12-14T19:50:09.606048", "MEAN_MOTION": 13.62358746, "ECCENTRICITY": 0.03586138, "INCLINATION": 73.9562, "RA_OF_ASC_NODE": 262.3801, "ARG_OF_PERICENTER": 240.0913, "MEAN_ANOMALY": 180.1967, "EPHEMERIS_TYPE": 0, "CLASSIFICATION_TYPE": "U", "NORAD_CAT_ID": 38054, "ELEMENT_SET_NO": 999, "REV_AT_EPOCH": 67208, "BSTAR": 0.0020981509, "MEAN_MOTION_DOT": 2.48e-05, "MEAN_MOTION_DDOT": 0}, "tle": {"line1": "1 38054U 93036BRL 25348.82650007  .00002480  00000+0  20982-2 0  9997", "line2": "2 38054  73.9562 262.3801 0358613 240.0913 180.1967 13.62358746672081"}}, "geometry": {"type": "Point", "coordinates": [150.08200093116412, -72.84031645069057]}}, {"type": "Feature", "properties": {"norad_id": 38055, "name": "COSMOS 2251 DEB", "group": "cosmos-2251-debris", "lat": -50.33431967744348, "lon": 41.65775147531184, "alt_km": 649.2470942294312, "timestamp": "2025-12-15T10:55:21.542926+00:00", "meta": {"OBJECT_NAME": "COSMOS 2251 DEB", "OBJECT_ID": "1993-036BRM", "EPOCH": "2025-12-14T22:46:42.153600", "MEAN_MOTION": 14.77004867, "ECCENTRICITY": 0.00658572, "INCLINATION": 74.0091, "RA_OF_ASC_NODE": 202.4184, "ARG_OF_PERICENTER": 329.4708, "MEAN_ANOMALY": 94.9571, "EPHEMERIS_TYPE": 0, "CLASSIFICATION_TYPE": "U", "NORAD_CAT_ID": 38055, "ELEMENT_SET_NO": 999, "REV_AT_EPOCH": 60715, "BSTAR": 0.00052350473, "MEAN_MOTION_DOT": 3.79e-05, "MEAN_MOTION_DDOT": 0}, "tle": {"line1": "1 38055U 93036BRM 25348.94909900  .00003790  00000+0  52350-3 0  9990", "line2": "2 38055  74.0091 202.4184 0065857 329.4708  94.9571 14.77004867607157"}}, "geometry": {"type": "Point", "coordinates": [41.65775147531184, -50.33431967744348]}}, {"type": "Feature", "properties": {"norad_id": 38060, "name": "COSMOS 2251 DEB", "group": "cosmos-2251-debris", "lat": -28.88291128116763, "lon": -78.98685880857087, "alt_km": 668.9830803384621, "timestamp": "2025-12-15T10:55:21.542936+00:00", "meta": {"OBJECT_NAME": "COSMOS 2251 DEB", "OBJECT_ID": "1993-036BRS", "EPOCH": "2025-12-14T13:44:13.433280", "MEAN_MOTION": 14.6387097, "ECCENTRICITY": 0.00581615, "INCLINATION": 74.0426, "RA_OF_ASC_NODE": 291.7883, "ARG_OF_PERICENTER": 37.3523, "MEAN_ANOMALY": 323.1666, "EPHEMERIS_TYPE": 0, "CLASSIFICATION_TYPE": "U", "NORAD_CAT_ID": 38060, "ELEMENT_SET_NO": 999, "REV_AT_EPOCH": 71991, "BSTAR": 0.000606294, "MEAN_MOTION_DOT": 3.217e-05, "MEAN_MOTION_DDOT": 0}, "tle": {"line1": "1 38060U 93036BRS 25348.57237770  .00003217  00000+0  60629-3 0  9996", "line2": "2 38060  74.0426 291.7883 0058161  37.3523 323.1666 14.63870970719913"}}, "geometry": {"type": "Point", "coordinates": [-78.98685880857087, -28.88291128116763]}}, {"type": "Feature", "properties": {"norad_id": 38062, "name": "COSMOS 2251 DEB", "group": "cosmos-2251-debris", "lat": -58.36907000416857, "lon": 132.736798046224, "alt_km": 597.4798777494652, "timestamp": "2025-12-15T10:55:21.542946+00:00", "meta": {"OBJECT_NAME": "COSMOS 2251 DEB", "OBJECT_ID": "1993-036BRU", "EPOCH": "2025-12-12T07:01:37.512192", "MEAN_MOTION": 14.94806818, "ECCENTRICITY": 0.00123829, "INCLINATION": 74.0077, "RA_OF_ASC_NODE": 291.3712, "ARG_OF_PERICENTER": 60.6656, "MEAN_ANOMALY": 90.0551, "EPHEMERIS_TYPE": 0, "CLASSIFICATION_TYPE": "U", "NORAD_CAT_ID": 38062, "ELEMENT_SET_NO": 999, "REV_AT_EPOCH": 63023, "BSTAR": 0.0035861639, "MEAN_MOTION_DOT": 0.00039272, "MEAN_MOTION_DDOT": 0}, "tle": {"line1": "1 38062U 93036BRU 25346.29279528  .00039272  00000+0  35862-2 0  9992", "line2": "2 38062  74.0077 291.3712 0012382  60.6656  90.0551 14.94806818630239"}}, "geometry": {"type": "Point", "coordinates": [132.736798046224, -58.36907000416857]}}, {"type": "Feature", "properties": {"norad_id": 38064, "name": "COSMOS 2251 DEB", "group": "cosmos-2251-debris", "lat": 35.21617480472623, "lon": -72.68631768243748, "alt_km": 705.1379857876409, "timestamp": "2025-12-15T10:55:21.542956+00:00", "meta": {"OBJECT_NAME": "COSMOS 2251 DEB", "OBJECT_ID": "1993-036BRW", "EPOCH": "2025-12-14T19:25:31.855872", "MEAN_MOTION": 14.56322696, "ECCENTRICITY": 0.00473862, "INCLINATION": 74.0219, "RA_OF_ASC_NODE": 120.2071, "ARG_OF_PERICENTER": 239.4824, "MEAN_ANOMALY": 120.1657, "EPHEMERIS_TYPE": 0, "CLASSIFICATION_TYPE": "U", "NORAD_CAT_ID": 38064, "ELEMENT_SET_NO": 999, "REV_AT_EPOCH": 71895, "BSTAR": 0.00096487043, "MEAN_MOTION_DOT": 4.313e-05, "MEAN_MOTION_DDOT": 0}, "tle": {"line1": "1 38064U 93036BRW 25348.80939648  .00004313  00000+0  96487-3 0  9998", "line2": "2 38064  74.0219 120.2071 0047386 239.4824 120.1657 14.56322696718955"}}, "geometry": {"type": "Point", "coordinates": [-72.68631768243748, 35.21617480472623]}}, {"type": "Feature", "properties": {"norad_id": 38067, "name": "COSMOS 2251 DEB", "group": "cosmos-2251-debris", "lat": 7.9474631746243904, "lon": 87.01310218453538, "alt_km": 711.8103415645046, "timestamp": "2025-12-15T10:55:21.542966+00:00", "meta": {"OBJECT_NAME": "COSMOS 2251 DEB", "OBJECT_ID": "1993-036BRZ", "EPOCH": "2025-12-14T13:35:01.091904", "MEAN_MOTION": 14.61135602, "ECCENTRICITY": 0.00694851, "INCLINATION": 74.0173, "RA_OF_ASC_NODE": 271.0073, "ARG_OF_PERICENTER": 58.167, "MEAN_ANOMALY": 117.7661, "EPHEMERIS_TYPE": 0, "CLASSIFICATION_TYPE": "U", "NORAD_CAT_ID": 38067, "ELEMENT_SET_NO": 999, "REV_AT_EPOCH": 62582, "BSTAR": 0.00041702153, "MEAN_MOTION_DOT": 2.092e-05, "MEAN_MOTION_DDOT": 0}, "tle": {"line1": "1 38067U 93036BRZ 25348.56598486  .00002092  00000+0  41702-3 0  9997", "line2": "2 38067  74.0173 271.0073 0069485  58.1670 117.7661 14.61135602625828"}}, "geometry": {"type": "Point", "coordinates": [87.01310218453538, 7.9474631746243904]}}, {"type": "Feature", "properties": {"norad_id": 38068, "name": "COSMOS 2251 DEB", "group": "cosmos-2251-debris", "lat": 46.57952586425741, "lon": -39.11227312072179, "alt_km": 750.886018539798, "timestamp": "2025-12-15T10:55:21.542976+00:00", "meta": {"OBJECT_NAME": "COSMOS 2251 DEB", "OBJECT_ID": "1993-036BSA", "EPOCH": "2025-11-26T00:12:22.263264", "MEAN_MOTION": 14.35960004, "ECCENTRICITY": 0.00240903, "INCLINATION": 74.0219, "RA_OF_ASC_NODE": 338.9788, "ARG_OF_PERICENTER": 72.1007, "MEAN_ANOMALY": 288.2769, "EPHEMERIS_TYPE": 0, "CLASSIFICATION_TYPE": "U", "NORAD_CAT_ID": 38068, "ELEMENT_SET_NO": 999, "REV_AT_EPOCH": 66406, "BSTAR": 0.00028750999, "MEAN_MOTION_DOT": 8.11e-06, "MEAN_MOTION_DDOT": 0}, "tle": {"line1": "1 38068U 93036BSA 25330.00859101  .00000811  00000+0  28751-3 0  9998", "line2": "2 38068  74.0219 338.9788 0024090  72.1007 288.2769 14.35960004664064"}}, "geometry": {"type": "Point", "coordinates": [-39.11227312072179, 46.57952586425741]}}]}